{
  "type": "FeatureCollection",
  "features": [
    {
      "type": "Feature",
      "properties": {
        "norad_id": 2807,
        "name": "OPS 7218 (TRANSIT 16)",
        "group": "nnss",
        "lat": -3.9179692796269423,
        "lon": -5.7625813880246985,
        "alt_km": 1084.8676294572106,
        "timestamp": "2025-12-05T09:41:19.397218+00:00",
        "meta_object_name": "OPS 7218 (TRANSIT 16)",
        "meta_object_id": "1967-048A",
        "meta_epoch": "2025-12-04T14:45:28.535040",
        "meta_mean_motion": 13.50719929,
        "meta_eccentricity": 0.0021535,
        "meta_inclination": 89.6734,
        "meta_ra_of_asc_node": 354.2858,
        "meta_arg_of_pericenter": 135.9479,
        "meta_mean_anomaly": 347.1684,
        "meta_ephemeris_type": 0,
        "meta_classification_type": "U",
        "meta_norad_cat_id": 2807,
        "meta_element_set_no": 999,
        "meta_rev_at_epoch": 88166,
        "meta_bstar": 0.00025282,
        "meta_mean_motion_dot": 1.73e-06,
        "meta_mean_motion_ddot": 0,
        "tle_line1": "1 02807U 67048A   25338.61491360  .00000173  00000+0  25282-3 0  9995",
        "tle_line2": "2 02807  89.6734 354.2858 0021535 135.9479 347.1684 13.50719929881663"
      },
      "geometry": {
        "type": "Point",
        "coordinates": [
          -5.7625813880246985,
          -3.9179692796269423
        ]
      }
    },
    {
      "type": "Feature",
      "properties": {
        "norad_id": 2965,
        "name": "OPS 4947 (TRANSIT 17)",
        "group": "nnss",
        "lat": -10.775564710109869,
        "lon": 24.852371439849332,
        "alt_km": 1065.2973857493735,
        "timestamp": "2025-12-05T09:41:19.397240+00:00",
        "meta_object_name": "OPS 4947 (TRANSIT 17)",
        "meta_object_id": "1967-092A",
        "meta_epoch": "2025-12-04T16:36:25.782912",
        "meta_mean_motion": 13.5345065,
        "meta_eccentricity": 0.0045821,
        "meta_inclination": 89.2505,
        "meta_ra_of_asc_node": 25.0492,
        "meta_arg_of_pericenter": 258.6962,
        "meta_mean_anomaly": 224.3284,
        "meta_ephemeris_type": 0,
        "meta_classification_type": "U",
        "meta_norad_cat_id": 2965,
        "meta_element_set_no": 999,
        "meta_rev_at_epoch": 86988,
        "meta_bstar": 0.00029336,
        "meta_mean_motion_dot": 2.09e-06,
        "meta_mean_motion_ddot": 0,
        "tle_line1": "1 02965U 67092A   25338.69196508  .00000209  00000+0  29336-3 0  9997",
        "tle_line2": "2 02965  89.2505  25.0492 0045821 258.6962 224.3284 13.53450650869889"
      },
      "geometry": {
        "type": "Point",
        "coordinates": [
          24.852371439849332,
          -10.775564710109869
        ]
      }
    },
    {
      "type": "Feature",
      "properties": {
        "norad_id": 3133,
        "name": "OPS 7034 (TRANSIT 18)",
        "group": "nnss",
        "lat": -7.883254607748369,
        "lon": 93.61458956261802,
        "alt_km": 1016.0784328312184,
        "timestamp": "2025-12-05T09:41:19.397254+00:00",
        "meta_object_name": "OPS 7034 (TRANSIT 18)",
        "meta_object_id": "1968-012A",
        "meta_epoch": "2025-12-04T14:04:32.594304",
        "meta_mean_motion": 13.51562987,
        "meta_eccentricity": 0.0073087,
        "meta_inclination": 90.027,
        "meta_ra_of_asc_node": 273.6161,
        "meta_arg_of_pericenter": 192.8597,
        "meta_mean_anomaly": 341.0846,
        "meta_ephemeris_type": 0,
        "meta_classification_type": "U",
        "meta_norad_cat_id": 3133,
        "meta_element_set_no": 999,
        "meta_rev_at_epoch": 56808,
        "meta_bstar": 0.00024398,
        "meta_mean_motion_dot": 1.71e-06,
        "meta_mean_motion_ddot": 0,
        "tle_line1": "1 03133U 68012A   25338.58648836  .00000171  00000+0  24398-3 0  9993",
        "tle_line2": "2 03133  90.0270 273.6161 0073087 192.8597 341.0846 13.51562987568082"
      },
      "geometry": {
        "type": "Point",
        "coordinates": [
          93.61458956261802,
          -7.883254607748369
        ]
      }
    },
    {
      "type": "Feature",
      "properties": {
        "norad_id": 4507,
        "name": "NNSS 19 (TRANSIT 19)",
        "group": "nnss",
        "lat": 14.993255007974431,
        "lon": 54.530097403839086,
        "alt_km": 1177.9412948738136,
        "timestamp": "2025-12-05T09:41:19.397267+00:00",
        "meta_object_name": "NNSS 19 (TRANSIT 19)",
        "meta_object_id": "1970-067A",
        "meta_epoch": "2025-12-04T16:52:11.309088",
        "meta_mean_motion": 13.51311923,
        "meta_eccentricity": 0.0171091,
        "meta_inclination": 90.0056,
        "meta_ra_of_asc_node": 234.5282,
        "meta_arg_of_pericenter": 316.8387,
        "meta_mean_anomaly": 41.9457,
        "meta_ephemeris_type": 0,
        "meta_classification_type": "U",
        "meta_norad_cat_id": 4507,
        "meta_element_set_no": 999,
        "meta_rev_at_epoch": 72113,
        "meta_bstar": 0.0003425,
        "meta_mean_motion_dot": 2.51e-06,
        "meta_mean_motion_ddot": 0,
        "tle_line1": "1 04507U 70067A   25338.70290867  .00000251  00000+0  34250-3 0  9990",
        "tle_line2": "2 04507  90.0056 234.5282 0171091 316.8387  41.9457 13.51311923721132"
      },
      "geometry": {
        "type": "Point",
        "coordinates": [
          54.530097403839086,
          14.993255007974431
        ]
      }
    },
    {
      "type": "Feature",
      "properties": {
        "norad_id": 6909,
        "name": "NNSS 20 (TRANSIT 20)",
        "group": "nnss",
        "lat": 66.97477275567678,
        "lon": -104.49617658520654,
        "alt_km": 890.6926895231036,
        "timestamp": "2025-12-05T09:41:19.397278+00:00",
        "meta_object_name": "NNSS 20 (TRANSIT 20)",
        "meta_object_id": "1973-081A",
        "meta_epoch": "2025-12-04T12:21:15.782400",
        "meta_mean_motion": 13.71428746,
        "meta_eccentricity": 0.0156497,
        "meta_inclination": 89.8557,
        "meta_ra_of_asc_node": 255.1775,
        "meta_arg_of_pericenter": 102.6717,
        "meta_mean_anomaly": 259.1993,
        "meta_ephemeris_type": 0,
        "meta_classification_type": "U",
        "meta_norad_cat_id": 6909,
        "meta_element_set_no": 999,
        "meta_rev_at_epoch": 80248,
        "meta_bstar": 0.00034816,
        "meta_mean_motion_dot": 3.53e-06,
        "meta_mean_motion_ddot": 0,
        "tle_line1": "1 06909U 73081A   25338.51476600  .00000353  00000+0  34816-3 0  9998",
        "tle_line2": "2 06909  89.8557 255.1775 0156497 102.6717 259.1993 13.71428746802489"
      },
      "geometry": {
        "type": "Point",
        "coordinates": [
          -104.49617658520654,
          66.97477275567678
        ]
      }
    },
    {
      "type": "Feature",
      "properties": {
        "norad_id": 10457,
        "name": "TRANSAT",
        "group": "nnss",
        "lat": -53.57186293117815,
        "lon": -100.66657816130501,
        "alt_km": 1066.1965983074824,
        "timestamp": "2025-12-05T09:41:19.397290+00:00",
        "meta_object_name": "TRANSAT",
        "meta_object_id": "1977-106A",
        "meta_epoch": "2025-12-04T17:04:46.896960",
        "meta_mean_motion": 13.48941715,
        "meta_eccentricity": 0.0024668,
        "meta_inclination": 89.6484,
        "meta_ra_of_asc_node": 78.8812,
        "meta_arg_of_pericenter": 213.1849,
        "meta_mean_anomaly": 261.512,
        "meta_ephemeris_type": 0,
        "meta_classification_type": "U",
        "meta_norad_cat_id": 10457,
        "meta_element_set_no": 999,
        "meta_rev_at_epoch": 36635,
        "meta_bstar": 0.00020686,
        "meta_mean_motion_dot": 1.4e-06,
        "meta_mean_motion_ddot": 0,
        "tle_line1": "1 10457U 77106A   25338.71165390  .00000140  00000+0  20686-3 0  9990",
        "tle_line2": "2 10457  89.6484  78.8812 0024668 213.1849 261.5120 13.48941715366359"
      },
      "geometry": {
        "type": "Point",
        "coordinates": [
          -100.66657816130501,
          -53.57186293117815
        ]
      }
    },
    {
      "type": "Feature",
      "properties": {
        "norad_id": 12458,
        "name": "NOVA 1",
        "group": "nnss",
        "lat": 88.27760865312622,
        "lon": -93.43186293452392,
        "alt_km": 1154.549161651994,
        "timestamp": "2025-12-05T09:41:19.397301+00:00",
        "meta_object_name": "NOVA 1",
        "meta_object_id": "1981-044A",
        "meta_epoch": "2025-12-04T13:19:13.010016",
        "meta_mean_motion": 13.23277117,
        "meta_eccentricity": 0.0015616,
        "meta_inclination": 89.8523,
        "meta_ra_of_asc_node": 91.5009,
        "meta_arg_of_pericenter": 124.1641,
        "meta_mean_anomaly": 247.0159,
        "meta_ephemeris_type": 0,
        "meta_classification_type": "U",
        "meta_norad_cat_id": 12458,
        "meta_element_set_no": 999,
        "meta_rev_at_epoch": 15078,
        "meta_bstar": 0.00015944,
        "meta_mean_motion_dot": 7.7e-07,
        "meta_mean_motion_ddot": 0,
        "tle_line1": "1 12458U 81044A   25338.55501169  .00000077  00000+0  15944-3 0  9999",
        "tle_line2": "2 12458  89.8523  91.5009 0015616 124.1641 247.0159 13.23277117150782"
      },
      "geometry": {
        "type": "Point",
        "coordinates": [
          -93.43186293452392,
          88.27760865312622
        ]
      }
    }
  ]
}